UNKNOWN                 
1 81052U          25304.55192048  .00005337  00000+0  14503-2 0  9996
2 81052  65.7705 135.9058 0564685 328.1086  28.6910 13.82171320594485
UNKNOWN                 
1 81069U          25308.44638831  .00003796  00000+0  50777-2 0  9991
2 81069 100.3803 207.2551 0061351 137.2991 223.2937 13.60123390510722
UNKNOWN                 
1 81078U          25304.03874747 -.00000263  00000+0 -66541-2 0  9994
2 81078  65.1154 326.7405 0173412  11.1648  12.9757 11.22436646489832
UNKNOWN                 
1 81111U          25308.55940821  .00015304  00000+0  32472-2 0  9996
2 81111  62.8880  55.0795 3868339 355.7535   1.7662  7.54081197269067
UNKNOWN                 
1 81134U          25306.85608574  .00000190  00000+0  66832-3 0  9993
2 81134  90.2519   3.1293 0027897 132.5035 227.8446 12.92958319457452
UNKNOWN                 
1 81161U          25305.81374739  .00001741  00000+0  18361-2 0  9997
2 81161 100.4203 144.0840 0064276  25.4508 334.9780 13.75443706550508
UNKNOWN                 
1 81219U          25306.51616292  .00000572  00000+0  52046-3 0  9992
2 81219  82.9286  36.3510 0019917 331.2555  28.7505 13.81740358601966
UNKNOWN                 
1 81228U          25306.88432173  .00004490  00000+0  14049-2 0  9999
2 81228  70.5242   6.1081 0061170  60.8262 299.8972 14.40161491620351
UNKNOWN                 
1 81254U          25308.61681030  .00003264  00000+0  21568-2 0  9991
2 81254 100.3904   5.4982 0075247 172.2692 187.9647 14.01120243607554
UNKNOWN                 
1 81279U          25306.39714218  .00001674  00000+0  65005-3 0  9994
2 81279  98.1351   9.0592 0208794 143.1230 218.4517 14.19792140456871
UNKNOWN                 
1 81301U          25308.48502582  .00000353  00000+0  42074-3 0  9995
2 81301  66.7605  27.2392 0095894 256.4597 120.4077 13.76672914601096
UNKNOWN                 
1 81311U          25306.92953823  .00000879  00000+0  18830-3 0  9997
2 81311  98.7384   2.3152 0130578 246.0515 289.6066 14.56433153633795
