CCSDS_OMM_VERS = 2.0
CREATION_DATE  = 
ORIGINATOR     = 

OBJECT_NAME    = UNKNOWN
OBJECT_ID      = 
CENTER_NAME    = EARTH
REF_FRAME      = TEME
TIME_SYSTEM    = UTC
MEAN_ELEMENT_THEORY = SGP/SGP4

EPOCH          = 2025-10-31T13:14:45.929472
MEAN_MOTION    = 13.82171320
ECCENTRICITY   = .0564685
INCLINATION    = 65.7705
RA_OF_ASC_NODE = 135.9058
ARG_OF_PERICENTER = 328.1086
MEAN_ANOMALY   = 28.6910

EPHEMERIS_TYPE = 0
CLASSIFICATION_TYPE = U
NORAD_CAT_ID   = 81052
ELEMENT_SET_NO = 999
REV_AT_EPOCH   = 59448
BSTAR          = .14503E-2
MEAN_MOTION_DOT = .5337E-4
MEAN_MOTION_DDOT = 0

CCSDS_OMM_VERS = 2.0
CREATION_DATE  = 
ORIGINATOR     = 

OBJECT_NAME    = UNKNOWN
OBJECT_ID      = 
CENTER_NAME    = EARTH
REF_FRAME      = TEME
TIME_SYSTEM    = UTC
MEAN_ELEMENT_THEORY = SGP/SGP4

EPOCH          = 2025-11-04T10:42:47.949984
MEAN_MOTION    = 13.60123390
ECCENTRICITY   = .0061351
INCLINATION    = 100.3803
RA_OF_ASC_NODE = 207.2551
ARG_OF_PERICENTER = 137.2991
MEAN_ANOMALY   = 223.2937

EPHEMERIS_TYPE = 0
CLASSIFICATION_TYPE = U
NORAD_CAT_ID   = 81069
ELEMENT_SET_NO = 999
REV_AT_EPOCH   = 51072
BSTAR          = .50777E-2
MEAN_MOTION_DOT = .3796E-4
MEAN_MOTION_DDOT = 0

CCSDS_OMM_VERS = 2.0
CREATION_DATE  = 
ORIGINATOR     = 

OBJECT_NAME    = UNKNOWN
OBJECT_ID      = 
CENTER_NAME    = EARTH
REF_FRAME      = TEME
TIME_SYSTEM    = UTC
MEAN_ELEMENT_THEORY = SGP/SGP4

EPOCH          = 2025-10-31T00:55:47.781408
MEAN_MOTION    = 11.22436646
ECCENTRICITY   = .0173412
INCLINATION    = 65.1154
RA_OF_ASC_NODE = 326.7405
ARG_OF_PERICENTER = 11.1648
MEAN_ANOMALY   = 12.9757

EPHEMERIS_TYPE = 0
CLASSIFICATION_TYPE = U
NORAD_CAT_ID   = 81078
ELEMENT_SET_NO = 999
REV_AT_EPOCH   = 48983
BSTAR          = -.66541E-2
MEAN_MOTION_DOT = -.263E-5
MEAN_MOTION_DDOT = 0

CCSDS_OMM_VERS = 2.0
CREATION_DATE  = 
ORIGINATOR     = 

OBJECT_NAME    = UNKNOWN
OBJECT_ID      = 
CENTER_NAME    = EARTH
REF_FRAME      = TEME
TIME_SYSTEM    = UTC
MEAN_ELEMENT_THEORY = SGP/SGP4

EPOCH          = 2025-11-04T13:25:32.869344
MEAN_MOTION    = 7.54081197
ECCENTRICITY   = .3868339
INCLINATION    = 62.8880
RA_OF_ASC_NODE = 55.0795
ARG_OF_PERICENTER = 355.7535
MEAN_ANOMALY   = 1.7662

EPHEMERIS_TYPE = 0
CLASSIFICATION_TYPE = U
NORAD_CAT_ID   = 81111
ELEMENT_SET_NO = 999
REV_AT_EPOCH   = 26906
BSTAR          = .32472E-2
MEAN_MOTION_DOT = .15304E-3
MEAN_MOTION_DDOT = 0

CCSDS_OMM_VERS = 2.0
CREATION_DATE  = 
ORIGINATOR     = 

OBJECT_NAME    = UNKNOWN
OBJECT_ID      = 
CENTER_NAME    = EARTH
REF_FRAME      = TEME
TIME_SYSTEM    = UTC
MEAN_ELEMENT_THEORY = SGP/SGP4

EPOCH          = 2025-11-02T20:32:45.807936
MEAN_MOTION    = 12.92958319
ECCENTRICITY   = .0027897
INCLINATION    = 90.2519
RA_OF_ASC_NODE = 3.1293
ARG_OF_PERICENTER = 132.5035
MEAN_ANOMALY   = 227.8446

EPHEMERIS_TYPE = 0
CLASSIFICATION_TYPE = U
NORAD_CAT_ID   = 81134
ELEMENT_SET_NO = 999
REV_AT_EPOCH   = 45745
BSTAR          = .66832E-3
MEAN_MOTION_DOT = .19E-5
MEAN_MOTION_DDOT = 0

CCSDS_OMM_VERS = 2.0
CREATION_DATE  = 
ORIGINATOR     = 

OBJECT_NAME    = UNKNOWN
OBJECT_ID      = 
CENTER_NAME    = EARTH
REF_FRAME      = TEME
TIME_SYSTEM    = UTC
MEAN_ELEMENT_THEORY = SGP/SGP4

EPOCH          = 2025-11-01T19:31:47.774496
MEAN_MOTION    = 13.75443706
ECCENTRICITY   = .0064276
INCLINATION    = 100.4203
RA_OF_ASC_NODE = 144.0840
ARG_OF_PERICENTER = 25.4508
MEAN_ANOMALY   = 334.9780

EPHEMERIS_TYPE = 0
CLASSIFICATION_TYPE = U
NORAD_CAT_ID   = 81161
ELEMENT_SET_NO = 999
REV_AT_EPOCH   = 55050
BSTAR          = .18361E-2
MEAN_MOTION_DOT = .1741E-4
MEAN_MOTION_DDOT = 0

CCSDS_OMM_VERS = 2.0
CREATION_DATE  = 
ORIGINATOR     = 

OBJECT_NAME    = UNKNOWN
OBJECT_ID      = 
CENTER_NAME    = EARTH
REF_FRAME      = TEME
TIME_SYSTEM    = UTC
MEAN_ELEMENT_THEORY = SGP/SGP4

EPOCH          = 2025-11-02T12:23:16.476288
MEAN_MOTION    = 13.81740358
ECCENTRICITY   = .0019917
INCLINATION    = 82.9286
RA_OF_ASC_NODE = 36.3510
ARG_OF_PERICENTER = 331.2555
MEAN_ANOMALY   = 28.7505

EPHEMERIS_TYPE = 0
CLASSIFICATION_TYPE = U
NORAD_CAT_ID   = 81219
ELEMENT_SET_NO = 999
REV_AT_EPOCH   = 60196
BSTAR          = .52046E-3
MEAN_MOTION_DOT = .572E-5
MEAN_MOTION_DDOT = 0

CCSDS_OMM_VERS = 2.0
CREATION_DATE  = 
ORIGINATOR     = 

OBJECT_NAME    = UNKNOWN
OBJECT_ID      = 
CENTER_NAME    = EARTH
REF_FRAME      = TEME
TIME_SYSTEM    = UTC
MEAN_ELEMENT_THEORY = SGP/SGP4

EPOCH          = 2025-11-02T21:13:25.397472
MEAN_MOTION    = 14.40161491
ECCENTRICITY   = .006117
INCLINATION    = 70.5242
RA_OF_ASC_NODE = 6.1081
ARG_OF_PERICENTER = 60.8262
MEAN_ANOMALY   = 299.8972

EPHEMERIS_TYPE = 0
CLASSIFICATION_TYPE = U
NORAD_CAT_ID   = 81228
ELEMENT_SET_NO = 999
REV_AT_EPOCH   = 62035
BSTAR          = .14049E-2
MEAN_MOTION_DOT = .449E-4
MEAN_MOTION_DDOT = 0

CCSDS_OMM_VERS = 2.0
CREATION_DATE  = 
ORIGINATOR     = 

OBJECT_NAME    = UNKNOWN
OBJECT_ID      = 
CENTER_NAME    = EARTH
REF_FRAME      = TEME
TIME_SYSTEM    = UTC
MEAN_ELEMENT_THEORY = SGP/SGP4

EPOCH          = 2025-11-04T14:48:12.409920
MEAN_MOTION    = 14.01120243
ECCENTRICITY   = .0075247
INCLINATION    = 100.3904
RA_OF_ASC_NODE = 5.4982
ARG_OF_PERICENTER = 172.2692
MEAN_ANOMALY   = 187.9647

EPHEMERIS_TYPE = 0
CLASSIFICATION_TYPE = U
NORAD_CAT_ID   = 81254
ELEMENT_SET_NO = 999
REV_AT_EPOCH   = 60755
BSTAR          = .21568E-2
MEAN_MOTION_DOT = .3264E-4
MEAN_MOTION_DDOT = 0

CCSDS_OMM_VERS = 2.0
CREATION_DATE  = 
ORIGINATOR     = 

OBJECT_NAME    = UNKNOWN
OBJECT_ID      = 
CENTER_NAME    = EARTH
REF_FRAME      = TEME
TIME_SYSTEM    = UTC
MEAN_ELEMENT_THEORY = SGP/SGP4

EPOCH          = 2025-11-02T09:31:53.084352
MEAN_MOTION    = 14.19792140
ECCENTRICITY   = .0208794
INCLINATION    = 98.1351
RA_OF_ASC_NODE = 9.0592
ARG_OF_PERICENTER = 143.1230
MEAN_ANOMALY   = 218.4517

EPHEMERIS_TYPE = 0
CLASSIFICATION_TYPE = U
NORAD_CAT_ID   = 81279
ELEMENT_SET_NO = 999
REV_AT_EPOCH   = 45687
BSTAR          = .65005E-3
MEAN_MOTION_DOT = .1674E-4
MEAN_MOTION_DDOT = 0

CCSDS_OMM_VERS = 2.0
CREATION_DATE  = 
ORIGINATOR     = 

OBJECT_NAME    = UNKNOWN
OBJECT_ID      = 
CENTER_NAME    = EARTH
REF_FRAME      = TEME
TIME_SYSTEM    = UTC
MEAN_ELEMENT_THEORY = SGP/SGP4

EPOCH          = 2025-11-04T11:38:26.230848
MEAN_MOTION    = 13.76672914
ECCENTRICITY   = .0095894
INCLINATION    = 66.7605
RA_OF_ASC_NODE = 27.2392
ARG_OF_PERICENTER = 256.4597
MEAN_ANOMALY   = 120.4077

EPHEMERIS_TYPE = 0
CLASSIFICATION_TYPE = U
NORAD_CAT_ID   = 81301
ELEMENT_SET_NO = 999
REV_AT_EPOCH   = 60109
BSTAR          = .42074E-3
MEAN_MOTION_DOT = .353E-5
MEAN_MOTION_DDOT = 0

CCSDS_OMM_VERS = 2.0
CREATION_DATE  = 
ORIGINATOR     = 

OBJECT_NAME    = UNKNOWN
OBJECT_ID      = 
CENTER_NAME    = EARTH
REF_FRAME      = TEME
TIME_SYSTEM    = UTC
MEAN_ELEMENT_THEORY = SGP/SGP4

EPOCH          = 2025-11-02T22:18:32.103072
MEAN_MOTION    = 14.56433153
ECCENTRICITY   = .0130578
INCLINATION    = 98.7384
RA_OF_ASC_NODE = 2.3152
ARG_OF_PERICENTER = 246.0515
MEAN_ANOMALY   = 289.6066

EPHEMERIS_TYPE = 0
CLASSIFICATION_TYPE = U
NORAD_CAT_ID   = 81311
ELEMENT_SET_NO = 999
REV_AT_EPOCH   = 63379
BSTAR          = .1883E-3
MEAN_MOTION_DOT = .879E-5
MEAN_MOTION_DDOT = 0

